COSMOS 1892             
1 18421U 87088A   25321.76433767  .00462416  96311-4  72003-3 0  9995
2 18421  82.4667  71.9251 0005959 274.1710  85.8889 16.04054865 87310
SL-14 R/B               
1 18749U 88001B   25322.05621045  .00000764  00000+0  85836-4 0  9993
2 18749  82.5107 300.3673 0016561 245.6025 114.3463 14.85385968 25454
COSMOS 1933             
1 18958U 88020A   25322.14865025  .00004411  00000+0  22279-3 0  9998
2 18958  82.5148   1.1720 0003417 206.4112 153.6948 15.16841432 33314
SL-3 R/B                
1 19046U 88032B   25322.15128088  .00006945  00000+0  33838-3 0  9999
2 19046  97.5052 301.0520 0024851 262.3947  97.4464 15.18394730 35175
SL-16 R/B               
1 19120U 88039B   25322.15508251  .00000017  00000+0  30917-4 0  9993
2 19120  71.0142 304.3808 0020798 156.9859 203.2203 14.19590263942552
COSMOS 1953             
1 19210U 88050A   25321.92958816  .00006988  00000+0  26558-3 0  9994
2 19210  82.5076 270.4678 0012801 148.0731 212.1286 15.26542576 20729
SL-8 R/B                
1 19257U 88053B   25322.13869486  .00000383  00000+0  13268-3 0  9993
2 19257  74.0468 318.0618 0019837 170.3020 265.6363 14.38839287960552
COSMOS 1975             
1 19573U 88093A   25322.12874064  .00010150  00000+0  39349-3 0  9996
2 19573  82.5221 229.4526 0010562 194.5791 165.5144 15.25950942  2388
SL-14 R/B               
1 19574U 88093B   25321.99752832  .00000680  00000+0  75585-4 0  9999
2 19574  82.5292 146.8868 0021947  50.4288  64.4423 14.85512645984451
SL-16 R/B               
1 19650U 88102B   25321.59462547  .00000136  00000+0  92901-4 0  9999
2 19650  71.0011  27.3506 0014510 190.6710 169.4107 14.16130870911023
INTERCOSMOS 24          
1 20261U 89080A   25322.11398962  .00000829  00000+0  24141-3 0  9992
2 20261  82.6060 176.9654 1188267 191.6397 165.4842 12.59382624652759
SL-14 R/B               
1 20262U 89080C   25322.18156909  .00000450  00000+0  12642-3 0  9996
2 20262  82.5937 244.7800 1231139  79.6960 294.0307 12.50386157646212
