CCSDS_OMM_VERS = 2.0
CREATION_DATE  = 
ORIGINATOR     = 

OBJECT_NAME    = COSMOS 1892
OBJECT_ID      = 1987-088A
CENTER_NAME    = EARTH
REF_FRAME      = TEME
TIME_SYSTEM    = UTC
MEAN_ELEMENT_THEORY = SGP/SGP4

EPOCH          = 2025-11-17T18:20:38.774688
MEAN_MOTION    = 16.04054865
ECCENTRICITY   = .0005959
INCLINATION    = 82.4667
RA_OF_ASC_NODE = 71.9251
ARG_OF_PERICENTER = 274.1710
MEAN_ANOMALY   = 85.8889

EPHEMERIS_TYPE = 0
CLASSIFICATION_TYPE = U
NORAD_CAT_ID   = 18421
ELEMENT_SET_NO = 999
REV_AT_EPOCH   = 8731
BSTAR          = .72003E-3
MEAN_MOTION_DOT = .462416E-2
MEAN_MOTION_DDOT = .96311E-4

CCSDS_OMM_VERS = 2.0
CREATION_DATE  = 
ORIGINATOR     = 

OBJECT_NAME    = SL-14 R/B
OBJECT_ID      = 1988-001B
CENTER_NAME    = EARTH
REF_FRAME      = TEME
TIME_SYSTEM    = UTC
MEAN_ELEMENT_THEORY = SGP/SGP4

EPOCH          = 2025-11-18T01:20:56.582880
MEAN_MOTION    = 14.85385968
ECCENTRICITY   = .0016561
INCLINATION    = 82.5107
RA_OF_ASC_NODE = 300.3673
ARG_OF_PERICENTER = 245.6025
MEAN_ANOMALY   = 114.3463

EPHEMERIS_TYPE = 0
CLASSIFICATION_TYPE = U
NORAD_CAT_ID   = 18749
ELEMENT_SET_NO = 999
REV_AT_EPOCH   = 2545
BSTAR          = .85836E-4
MEAN_MOTION_DOT = .764E-5
MEAN_MOTION_DDOT = 0

CCSDS_OMM_VERS = 2.0
CREATION_DATE  = 
ORIGINATOR     = 

OBJECT_NAME    = COSMOS 1933
OBJECT_ID      = 1988-020A
CENTER_NAME    = EARTH
REF_FRAME      = TEME
TIME_SYSTEM    = UTC
MEAN_ELEMENT_THEORY = SGP/SGP4

EPOCH          = 2025-11-18T03:34:03.381600
MEAN_MOTION    = 15.16841432
ECCENTRICITY   = .0003417
INCLINATION    = 82.5148
RA_OF_ASC_NODE = 1.1720
ARG_OF_PERICENTER = 206.4112
MEAN_ANOMALY   = 153.6948

EPHEMERIS_TYPE = 0
CLASSIFICATION_TYPE = U
NORAD_CAT_ID   = 18958
ELEMENT_SET_NO = 999
REV_AT_EPOCH   = 3331
BSTAR          = .22279E-3
MEAN_MOTION_DOT = .4411E-4
MEAN_MOTION_DDOT = 0

CCSDS_OMM_VERS = 2.0
CREATION_DATE  = 
ORIGINATOR     = 

OBJECT_NAME    = SL-3 R/B
OBJECT_ID      = 1988-032B
CENTER_NAME    = EARTH
REF_FRAME      = TEME
TIME_SYSTEM    = UTC
MEAN_ELEMENT_THEORY = SGP/SGP4

EPOCH          = 2025-11-18T03:37:50.668032
MEAN_MOTION    = 15.18394730
ECCENTRICITY   = .0024851
INCLINATION    = 97.5052
RA_OF_ASC_NODE = 301.0520
ARG_OF_PERICENTER = 262.3947
MEAN_ANOMALY   = 97.4464

EPHEMERIS_TYPE = 0
CLASSIFICATION_TYPE = U
NORAD_CAT_ID   = 19046
ELEMENT_SET_NO = 999
REV_AT_EPOCH   = 3517
BSTAR          = .33838E-3
MEAN_MOTION_DOT = .6945E-4
MEAN_MOTION_DDOT = 0

CCSDS_OMM_VERS = 2.0
CREATION_DATE  = 
ORIGINATOR     = 

OBJECT_NAME    = SL-16 R/B
OBJECT_ID      = 1988-039B
CENTER_NAME    = EARTH
REF_FRAME      = TEME
TIME_SYSTEM    = UTC
MEAN_ELEMENT_THEORY = SGP/SGP4

EPOCH          = 2025-11-18T03:43:19.128864
MEAN_MOTION    = 14.19590263
ECCENTRICITY   = .0020798
INCLINATION    = 71.0142
RA_OF_ASC_NODE = 304.3808
ARG_OF_PERICENTER = 156.9859
MEAN_ANOMALY   = 203.2203

EPHEMERIS_TYPE = 0
CLASSIFICATION_TYPE = U
NORAD_CAT_ID   = 19120
ELEMENT_SET_NO = 999
REV_AT_EPOCH   = 94255
BSTAR          = .30917E-4
MEAN_MOTION_DOT = .17E-6
MEAN_MOTION_DDOT = 0

CCSDS_OMM_VERS = 2.0
CREATION_DATE  = 
ORIGINATOR     = 

OBJECT_NAME    = COSMOS 1953
OBJECT_ID      = 1988-050A
CENTER_NAME    = EARTH
REF_FRAME      = TEME
TIME_SYSTEM    = UTC
MEAN_ELEMENT_THEORY = SGP/SGP4

EPOCH          = 2025-11-17T22:18:36.417024
MEAN_MOTION    = 15.26542576
ECCENTRICITY   = .0012801
INCLINATION    = 82.5076
RA_OF_ASC_NODE = 270.4678
ARG_OF_PERICENTER = 148.0731
MEAN_ANOMALY   = 212.1286

EPHEMERIS_TYPE = 0
CLASSIFICATION_TYPE = U
NORAD_CAT_ID   = 19210
ELEMENT_SET_NO = 999
REV_AT_EPOCH   = 2072
BSTAR          = .26558E-3
MEAN_MOTION_DOT = .6988E-4
MEAN_MOTION_DDOT = 0

CCSDS_OMM_VERS = 2.0
CREATION_DATE  = 
ORIGINATOR     = 

OBJECT_NAME    = SL-8 R/B
OBJECT_ID      = 1988-053B
CENTER_NAME    = EARTH
REF_FRAME      = TEME
TIME_SYSTEM    = UTC
MEAN_ELEMENT_THEORY = SGP/SGP4

EPOCH          = 2025-11-18T03:19:43.235904
MEAN_MOTION    = 14.38839287
ECCENTRICITY   = .0019837
INCLINATION    = 74.0468
RA_OF_ASC_NODE = 318.0618
ARG_OF_PERICENTER = 170.3020
MEAN_ANOMALY   = 265.6363

EPHEMERIS_TYPE = 0
CLASSIFICATION_TYPE = U
NORAD_CAT_ID   = 19257
ELEMENT_SET_NO = 999
REV_AT_EPOCH   = 96055
BSTAR          = .13268E-3
MEAN_MOTION_DOT = .383E-5
MEAN_MOTION_DDOT = 0

CCSDS_OMM_VERS = 2.0
CREATION_DATE  = 
ORIGINATOR     = 

OBJECT_NAME    = COSMOS 1975
OBJECT_ID      = 1988-093A
CENTER_NAME    = EARTH
REF_FRAME      = TEME
TIME_SYSTEM    = UTC
MEAN_ELEMENT_THEORY = SGP/SGP4

EPOCH          = 2025-11-18T03:05:23.191296
MEAN_MOTION    = 15.25950942
ECCENTRICITY   = .0010562
INCLINATION    = 82.5221
RA_OF_ASC_NODE = 229.4526
ARG_OF_PERICENTER = 194.5791
MEAN_ANOMALY   = 165.5144

EPHEMERIS_TYPE = 0
CLASSIFICATION_TYPE = U
NORAD_CAT_ID   = 19573
ELEMENT_SET_NO = 999
REV_AT_EPOCH   = 238
BSTAR          = .39349E-3
MEAN_MOTION_DOT = .1015E-3
MEAN_MOTION_DDOT = 0

CCSDS_OMM_VERS = 2.0
CREATION_DATE  = 
ORIGINATOR     = 

OBJECT_NAME    = SL-14 R/B
OBJECT_ID      = 1988-093B
CENTER_NAME    = EARTH
REF_FRAME      = TEME
TIME_SYSTEM    = UTC
MEAN_ELEMENT_THEORY = SGP/SGP4

EPOCH          = 2025-11-17T23:56:26.446848
MEAN_MOTION    = 14.85512645
ECCENTRICITY   = .0021947
INCLINATION    = 82.5292
RA_OF_ASC_NODE = 146.8868
ARG_OF_PERICENTER = 50.4288
MEAN_ANOMALY   = 64.4423

EPHEMERIS_TYPE = 0
CLASSIFICATION_TYPE = U
NORAD_CAT_ID   = 19574
ELEMENT_SET_NO = 999
REV_AT_EPOCH   = 98445
BSTAR          = .75585E-4
MEAN_MOTION_DOT = .68E-5
MEAN_MOTION_DDOT = 0

CCSDS_OMM_VERS = 2.0
CREATION_DATE  = 
ORIGINATOR     = 

OBJECT_NAME    = SL-16 R/B
OBJECT_ID      = 1988-102B
CENTER_NAME    = EARTH
REF_FRAME      = TEME
TIME_SYSTEM    = UTC
MEAN_ELEMENT_THEORY = SGP/SGP4

EPOCH          = 2025-11-17T14:16:15.640608
MEAN_MOTION    = 14.16130870
ECCENTRICITY   = .00145107
INCLINATION    = 71.0011
RA_OF_ASC_NODE = 27.3506
ARG_OF_PERICENTER = 190.6710
MEAN_ANOMALY   = 169.4107

EPHEMERIS_TYPE = 0
CLASSIFICATION_TYPE = U
NORAD_CAT_ID   = 19650
ELEMENT_SET_NO = 999
REV_AT_EPOCH   = 91102
BSTAR          = .92900567E-4
MEAN_MOTION_DOT = .136E-5
MEAN_MOTION_DDOT = 0

CCSDS_OMM_VERS = 2.0
CREATION_DATE  = 
ORIGINATOR     = 

OBJECT_NAME    = INTERCOSMOS 24
OBJECT_ID      = 1989-080A
CENTER_NAME    = EARTH
REF_FRAME      = TEME
TIME_SYSTEM    = UTC
MEAN_ELEMENT_THEORY = SGP/SGP4

EPOCH          = 2025-11-18T02:44:08.703168
MEAN_MOTION    = 12.59382624
ECCENTRICITY   = .1188267
INCLINATION    = 82.6060
RA_OF_ASC_NODE = 176.9654
ARG_OF_PERICENTER = 191.6397
MEAN_ANOMALY   = 165.4842

EPHEMERIS_TYPE = 0
CLASSIFICATION_TYPE = U
NORAD_CAT_ID   = 20261
ELEMENT_SET_NO = 999
REV_AT_EPOCH   = 65275
BSTAR          = .24141E-3
MEAN_MOTION_DOT = .829E-5
MEAN_MOTION_DDOT = 0

CCSDS_OMM_VERS = 2.0
CREATION_DATE  = 
ORIGINATOR     = 

OBJECT_NAME    = SL-14 R/B
OBJECT_ID      = 1989-080C
CENTER_NAME    = EARTH
REF_FRAME      = TEME
TIME_SYSTEM    = UTC
MEAN_ELEMENT_THEORY = SGP/SGP4

EPOCH          = 2025-11-18T04:21:27.569376
MEAN_MOTION    = 12.50386157
ECCENTRICITY   = .1231139
INCLINATION    = 82.5937
RA_OF_ASC_NODE = 244.7800
ARG_OF_PERICENTER = 79.6960
MEAN_ANOMALY   = 294.0307

EPHEMERIS_TYPE = 0
CLASSIFICATION_TYPE = U
NORAD_CAT_ID   = 20262
ELEMENT_SET_NO = 999
REV_AT_EPOCH   = 64621
BSTAR          = .12642E-3
MEAN_MOTION_DOT = .45E-5
MEAN_MOTION_DDOT = 0

